OBJECT_NAME,OBJECT_ID,EPOCH,MEAN_MOTION,ECCENTRICITY,INCLINATION,RA_OF_ASC_NODE,ARG_OF_PERICENTER,MEAN_ANOMALY,EPHEMERIS_TYPE,CLASSIFICATION_TYPE,NORAD_CAT_ID,ELEMENT_SET_NO,REV_AT_EPOCH,BSTAR,MEAN_MOTION_DOT,MEAN_MOTION_DDOT
STARLINK-37518,2026-117X,2026-06-09T12:00:02.998944,15.92574670,.0001004,53.1550,281.5505,50.3160,50.1166,0,U,69259,999,293,-.56971E-2,-.198001E-1,.10739E-2
STARLINK-37478,2026-117Y,2026-06-09T12:00:02.998944,15.92567425,.0001079,53.1552,281.5583,50.8995,45.8690,0,U,69260,999,293,-.58723E-2,-.203933E-1,.11347E-2
STARLINK-37506,2026-117Z,2026-06-09T12:00:02.998944,15.92769653,.0001059,53.1548,281.5478,51.5475,50.1207,0,U,69261,999,293,-.58434E-2,-.2050737E-1,.1149E-2
STARLINK-37503,2026-117AA,2026-06-09T12:00:02.998944,15.92759490,.0001084,53.1551,281.5415,49.1883,55.2580,0,U,69262,999,293,-.60184E-2,-.2110253E-1,.12124E-2
STARLINK-37502,2026-117AB,2026-06-09T12:00:02.998944,15.92526145,.0001047,53.1549,281.5351,50.7845,56.5040,0,U,69263,999,293,-.58411E-2,-.2024318E-1,.11187E-2
STARLINK-37486,2026-117AC,2026-06-09T12:00:02.998944,15.92281326,.0001083,53.1547,281.5237,53.7720,59.1433,0,U,69264,999,293,-.58715E-2,-.2009292E-1,.11005E-2
STARLINK-37435,2026-117AD,2026-06-09T12:00:02.998944,15.91112926,.0001049,53.1549,281.5080,60.7491,59.2189,0,U,69265,999,293,-.61097E-2,-.196881E-1,.10471E-2
STARLINK-37464,2026-117AE,2026-06-09T12:00:02.998944,15.90829292,.0001129,53.1549,281.4851,57.1805,73.7180,0,U,69266,999,294,-.71365E-2,-.2262494E-1,.13557E-2
KUIPER-00282,2026-118A,2026-06-09T09:46:53.445792,15.34916272,.0011678,51.8585,91.0405,152.6800,207.4802,0,U,69267,999,278,-.19241E-2,-.6612E-3,0
KUIPER-00383,2026-118B,2026-06-09T09:42:58.348800,15.35005790,.0010537,51.8589,91.0221,153.8434,206.3086,0,U,69268,999,278,-.12173E-2,-.42204E-3,0
KUIPER-00527,2026-118C,2026-06-09T09:39:22.622688,15.35578456,.0009882,51.8619,91.0070,148.7153,211.4422,0,U,69269,999,278,.37779E-3,.12921E-3,0
KUIPER-00562,2026-118D,2026-06-09T09:16:46.926336,15.38471443,.0001924,51.8715,90.8970,95.9907,264.1300,0,U,69270,999,278,.57065E-3,.21671E-3,0
KUIPER-00570,2026-118E,2026-06-09T12:00:02.998944,15.35322847,.001166,51.8575,90.5611,156.6415,10.8875,0,U,69271,999,235,-.31441E-3,-.11349E-3,0
KUIPER-00572,2026-118F,2026-06-09T09:32:39.634080,15.36826283,.0007363,51.8672,90.9775,143.0755,217.0739,0,U,69272,999,278,.5394E-3,.19392E-3,0
KUIPER-00581,2026-118G,2026-06-09T09:35:46.442112,15.36506209,.0008865,51.8654,90.9917,146.7854,213.3690,0,U,69273,999,287,.52827E-3,.18791E-3,0
KUIPER-00584,2026-118H,2026-06-09T09:45:19.096128,15.35311762,.0011117,51.8606,91.0335,160.2231,199.9187,0,U,69274,999,278,.58526E-3,.20083E-3,0
KUIPER-00587,2026-118J,2026-06-09T09:35:00.809952,15.36483435,.0008347,51.8627,90.9883,149.1352,211.0126,0,U,69275,999,278,.55117E-3,.19608E-3,0
KUIPER-00590,2026-118K,2026-06-09T09:24:03.655872,15.37715411,.0004228,51.8684,90.9393,127.8693,232.2677,0,U,69276,999,278,.61217E-3,.22711E-3,0
KUIPER-00592,2026-118L,2026-06-09T09:22:01.174368,15.37936708,.0003754,51.8706,90.9269,107.9986,252.1410,0,U,69277,999,278,.54097E-3,.20163E-3,0
KUIPER-00593,2026-118M,2026-06-09T09:22:25.634208,15.37838771,.0004089,51.8709,90.9269,127.3713,232.7647,0,U,69278,999,284,.47197E-3,.17478E-3,0
KUIPER-00594,2026-118N,2026-06-09T09:15:12.735648,15.38446309,.0001145,51.8712,90.8941,62.6926,297.4177,0,U,69279,999,278,.64785E-3,.24646E-3,0
KUIPER-00595,2026-118P,2026-06-09T09:17:36.296160,15.38332610,.0001986,51.8706,90.9065,107.9880,252.1323,0,U,69280,999,281,.55191E-3,.20848E-3,0
KUIPER-00596,2026-118Q,2026-06-09T08:10:03.252288,15.35586240,.0011999,51.8551,91.3379,156.6518,203.5015,0,U,69281,999,277,.36952E-3,.12641E-3,0
KUIPER-00597,2026-118R,2026-06-09T09:30:30.538656,15.36894542,.0007178,51.8647,90.9684,140.8871,219.2636,0,U,69282,999,278,.56416E-3,.20347E-3,0
KUIPER-00599,2026-118S,2026-06-09T07:55:11.643168,15.37201218,.0006266,51.8692,91.2738,134.2911,225.8590,0,U,69283,999,277,.52731E-3,.19178E-3,0
KUIPER-00600,2026-118T,2026-06-09T09:34:22.547712,15.36600732,.0008969,51.8639,90.9857,143.6988,216.4608,0,U,69284,999,278,.5466E-3,.19519E-3,0
KUIPER-00601,2026-118U,2026-06-09T09:25:55.657056,15.37524356,.0004774,51.8702,90.9458,125.9749,234.1681,0,U,69285,999,278,.53699E-3,.19743E-3,0
KUIPER-00602,2026-118V,2026-06-09T09:21:07.996032,15.37970950,.0003166,51.8699,90.9242,117.7162,242.4146,0,U,69286,999,278,.54632E-3,.20389E-3,0
KUIPER-00603,2026-118W,2026-06-09T09:27:02.801088,15.37379550,.0005519,51.8668,90.9538,129.3872,230.7604,0,U,69287,999,278,.61965E-3,.22746E-3,0
KUIPER-00605,2026-118X,2026-06-09T09:31:43.324608,15.36924375,.0007685,51.8660,90.9734,137.2031,222.9554,0,U,69288,999,278,.53295E-3,.19218E-3,0
