STARLINK-37518          
1 69259U 26117X   26160.50003471 -.01980010  10739-2 -56971-2 0  9996
2 69259  53.1550 281.5505 0001004  50.3160  50.1166 15.92574670  2937
STARLINK-37478          
1 69260U 26117Y   26160.50003471 -.02039330  11347-2 -58723-2 0  9992
2 69260  53.1552 281.5583 0001079  50.8995  45.8690 15.92567425  2933
STARLINK-37506          
1 69261U 26117Z   26160.50003471 -.02050737  11490-2 -58434-2 0  9995
2 69261  53.1548 281.5478 0001059  51.5475  50.1207 15.92769653  2931
STARLINK-37503          
1 69262U 26117AA  26160.50003471 -.02110253  12124-2 -60184-2 0  9996
2 69262  53.1551 281.5415 0001084  49.1883  55.2580 15.92759490  2939
STARLINK-37502          
1 69263U 26117AB  26160.50003471 -.02024318  11187-2 -58411-2 0  9991
2 69263  53.1549 281.5351 0001047  50.7845  56.5040 15.92526145  2935
STARLINK-37486          
1 69264U 26117AC  26160.50003471 -.02009292  11005-2 -58715-2 0  9992
2 69264  53.1547 281.5237 0001083  53.7720  59.1433 15.92281326  2936
STARLINK-37435          
1 69265U 26117AD  26160.50003471 -.01968810  10471-2 -61097-2 0  9995
2 69265  53.1549 281.5080 0001049  60.7491  59.2189 15.91112926  2937
STARLINK-37464          
1 69266U 26117AE  26160.50003471 -.02262494  13557-2 -71365-2 0  9999
2 69266  53.1549 281.4851 0001129  57.1805  73.7180 15.90829292  2944
KUIPER-00282            
1 69267U 26118A   26160.40756303 -.00066120  00000+0 -19241-2 0  9996
2 69267  51.8585  91.0405 0011678 152.6800 207.4802 15.34916272  2788
KUIPER-00383            
1 69268U 26118B   26160.40484200 -.00042204  00000+0 -12173-2 0  9995
2 69268  51.8589  91.0221 0010537 153.8434 206.3086 15.35005790  2785
KUIPER-00527            
1 69269U 26118C   26160.40234517  .00012921  00000+0  37779-3 0  9991
2 69269  51.8619  91.0070 0009882 148.7153 211.4422 15.35578456  2789
KUIPER-00562            
1 69270U 26118D   26160.38665424  .00021671  00000+0  57065-3 0  9997
2 69270  51.8715  90.8970 0001924  95.9907 264.1300 15.38471443  2784
KUIPER-00570            
1 69271U 26118E   26160.50003471 -.00011349  00000+0 -31441-3 0  9993
2 69271  51.8575  90.5611 0011660 156.6415  10.8875 15.35322847  2351
KUIPER-00572            
1 69272U 26118F   26160.39768095  .00019392  00000+0  53940-3 0  9993
2 69272  51.8672  90.9775 0007363 143.0755 217.0739 15.36826283  2788
KUIPER-00581            
1 69273U 26118G   26160.39984308  .00018791  00000+0  52827-3 0  9996
2 69273  51.8654  90.9917 0008865 146.7854 213.3690 15.36506209  2873
KUIPER-00584            
1 69274U 26118H   26160.40647102  .00020083  00000+0  58526-3 0  9996
2 69274  51.8606  91.0335 0011117 160.2231 199.9187 15.35311762  2788
KUIPER-00587            
1 69275U 26118J   26160.39931493  .00019608  00000+0  55117-3 0  9998
2 69275  51.8627  90.9883 0008347 149.1352 211.0126 15.36483435  2786
KUIPER-00590            
1 69276U 26118K   26160.39170898  .00022711  00000+0  61217-3 0  9990
2 69276  51.8684  90.9393 0004228 127.8693 232.2677 15.37715411  2780
KUIPER-00592            
1 69277U 26118L   26160.39029137  .00020163  00000+0  54097-3 0  9997
2 69277  51.8706  90.9269 0003754 107.9986 252.1410 15.37936708  2785
KUIPER-00593            
1 69278U 26118M   26160.39057447  .00017478  00000+0  47197-3 0  9991
2 69278  51.8709  90.9269 0004089 127.3713 232.7647 15.37838771  2849
KUIPER-00594            
1 69279U 26118N   26160.38556407  .00024646  00000+0  64785-3 0  9998
2 69279  51.8712  90.8941 0001145  62.6926 297.4177 15.38446309  2789
KUIPER-00595            
1 69280U 26118P   26160.38722565  .00020848  00000+0  55191-3 0  9991
2 69280  51.8706  90.9065 0001986 107.9880 252.1323 15.38332610  2811
KUIPER-00596            
1 69281U 26118Q   26160.34031542  .00012641  00000+0  36952-3 0  9992
2 69281  51.8551  91.3379 0011999 156.6518 203.5015 15.35586240  2777
KUIPER-00597            
1 69282U 26118R   26160.39618679  .00020347  00000+0  56416-3 0  9999
2 69282  51.8647  90.9684 0007178 140.8871 219.2636 15.36894542  2781
KUIPER-00599            
1 69283U 26118S   26160.32999587  .00019178  00000+0  52731-3 0  9999
2 69283  51.8692  91.2738 0006266 134.2911 225.8590 15.37201218  2779
KUIPER-00600            
1 69284U 26118T   26160.39887208  .00019519  00000+0  54660-3 0  9995
2 69284  51.8639  90.9857 0008969 143.6988 216.4608 15.36600732  2789
KUIPER-00601            
1 69285U 26118U   26160.39300529  .00019743  00000+0  53699-3 0  9992
2 69285  51.8702  90.9458 0004774 125.9749 234.1681 15.37524356  2782
KUIPER-00602            
1 69286U 26118V   26160.38967588  .00020389  00000+0  54632-3 0  9992
2 69286  51.8699  90.9242 0003166 117.7162 242.4146 15.37970950  2784
KUIPER-00603            
1 69287U 26118W   26160.39378242  .00022746  00000+0  61965-3 0  9993
2 69287  51.8668  90.9538 0005519 129.3872 230.7604 15.37379550  2788
KUIPER-00605            
1 69288U 26118X   26160.39702922  .00019218  00000+0  53295-3 0  9997
2 69288  51.8660  90.9734 0007685 137.2031 222.9554 15.36924375  2787
